GALAXY 25 (G-25)        
1 24812C 97026A   23121.00000000 -.00000171  00000-0  00000-0 0  1217
2 24812   4.4861  80.4081 0011117 338.3526 303.7141  0.99040433    16
GALAXY 25 (G-25)        
1 24812C 97026A   23124.00000000 -.00000242  00000-0  00000-0 0  1242
2 24812   4.4946  80.3267 0011444 340.9298 290.8557  0.99039674    15
INTELSAT 5 (IS-5)       
1 24916C 97046A   23121.00000000  .00000035  00000-0  00000-0 0  1212
2 24916   7.9067  58.7570 0001531  38.3398 287.7635  1.00270901    18
INTELSAT 5 (IS-5)   [PM]
1 24916C 97046A   23123.00000000  .00000035  00000-0  00000-0 0  1236
2 24916   7.9116  58.7293 0001842  36.2340 291.8654  1.00268349    14
INTELSAT 5 (IS-5)       
1 24916C 97046A   23124.00000000  .00000035  00000-0  00000-0 0  1248
2 24916   7.9149  58.7174 0002031  37.8548 291.2363  1.00268691    17
GALAXY 11 (G-11)        
1 26038C 99071A   23121.00000000 -.00000072  00000-0  00000-0 0  1211
2 26038   3.8125  84.0753 0001567  31.3777  10.1107  1.00271868    18
GALAXY 11 (G-11)        
1 26038C 99071A   23124.00000000 -.00000072  00000-0  00000-0 0  1247
2 26038   3.8199  83.9878 0001930  28.1304  16.4024  1.00271604    14
INTELSAT 9 (IS-9)       
1 26451C 00043A   23121.00000000 -.00000191  00000-0  00000-0 0  1213
2 26451   7.8911  58.9459 0005782 340.9880 128.7463  1.00269881    17
INTELSAT 9 (IS-9)   [PM]
1 26451C 00043A   23121.66089120 -.00000191  00000-0  00000-0 0  1215
2 26451   7.8929  58.9096 0003232  33.9300 314.3833  1.00274759    11
INTELSAT 9 (IS-9)       
1 26451C 00043A   23124.00000000 -.00000191  00000-0  00000-0 0  1249
2 26451   7.8997  58.9041 0005786 344.6808 128.0720  1.00268835    10
INTELSAT 1R (IS-1R)     
1 26608C 00072A   23121.00000000 -.00000046  00000-0  00000-0 0  1218
2 26608   5.2489  76.3607 0000953  75.5970 223.8432  1.00269673    10
INTELSAT 1R (IS-1R)     
1 26608C 00072A   23124.00000000 -.00000046  00000-0  00000-0 0  1244
2 26608   5.2599  76.2922 0001248  62.2012 240.2734  1.00269881    18
INTELSAT 10 (IS-10) [PM]
1 26766C 01019A   23115.86278935  .00000127  00000-0  00000-0 0  1158
2 26766   6.3245  70.6165 0002345 300.4540 330.9543  1.00268500    14
INTELSAT 10 (IS-10)     
1 26766C 01019A   23121.00000000  .00000127  00000-0  00000-0 0  1214
2 26766   6.3316  70.5558 0003204 346.2182 339.6903  1.00269444    17
INTELSAT 10 (IS-10)     
1 26766C 01019A   23124.00000000  .00000127  00000-0  00000-0 0  1240
2 26766   6.3406  70.4985 0003539 354.0482 334.8722  1.00270847    16
INTELSAT 901            
1 26824C 01024A   23121.00000000 -.00000116  00000-0  00000-0 0  1214
2 26824   0.0419  67.5148 0000758 323.5301 160.1386  1.00270542    13
INTELSAT 901            
1 26824C 01024A   23124.00000000 -.00000138  00000-0  00000-0 0  1244
2 26824   0.0034 126.9827 0000996 307.1740 119.9590  1.00269862    11
INTELSAT 902            
1 26900C 01039A   23121.00000000 -.00000192  00000-0  00000-0 0  1219
2 26900   3.2053  85.4319 0004073 338.0082 105.1400  1.00269918    18
INTELSAT 902            
1 26900C 01039A   23124.00000000 -.00000192  00000-0  00000-0 0  1245
2 26900   3.2131  85.3282 0004278 341.7844 104.4332  1.00272388    18
INTELSAT 902        [PM]
1 26900C 01039A   23128.87587963 -.00000192  00000-0  00000-0 0  1286
2 26900   3.2313  85.3237 0004181 349.7567  56.5815  1.00272508    10
INTELSAT 904            
1 27380C 02007A   23121.00000000 -.00000123  00000-0  00000-0 0  1212
2 27380   4.0321  82.4980 0003908 322.3683 144.3179  1.00271578    11
INTELSAT 904            
1 27380C 02007A   23124.00000000 -.00000123  00000-0  00000-0 0  1248
2 27380   4.0403  82.4101 0004036 329.7099 140.0353  1.00271265    12
INTELSAT 904        [PM]
1 27380C 02007A   23132.83673611 -.00000123  00000-0  00000-0 0  1321
2 27380   4.0649  82.3894 0003593 343.7271  75.9381  1.00272136    12
INTELSAT 905            
1 27438C 02027A   23121.00000000 -.00000094  00000-0  00000-0 0  1215
2 27438   3.8556  83.2067 0003596 311.5889 159.3802  1.00271978    11
INTELSAT 905        [PM]
1 27438C 02027A   23121.65400463 -.00000094  00000-0  00000-0 0  1213
2 27438   3.8568  83.1766 0002446 315.6332  31.4497  1.00273017    16
INTELSAT 905            
1 27438C 02027A   23124.00000000 -.00000094  00000-0  00000-0 0  1241
2 27438   3.8638  83.1166 0003630 319.5287 154.5036  1.00271807    17
GALAXY 3C (G-3C)        
1 27445C 02030A   23121.00000000 -.00000062  00000-0  00000-0 0  1212
2 27445   0.7672  91.3920 0000240  21.7171  10.7161  1.00270044    10
GALAXY 3C (G-3C)        
1 27445C 02030A   23124.00000000 -.00000062  00000-0  00000-0 0  1248
2 27445   0.7745  90.9747 0000427  21.6102  14.1945  1.00271454    17
INTELSAT 906        [PM]
1 27513C 02041A   23117.62065972  .00000105  00000-0  00000-0 0  1174
2 27513   2.8713  86.8546 0003571 327.2026  88.8723  1.00271254    15
INTELSAT 906            
1 27513C 02041A   23121.00000000  .00000105  00000-0  00000-0 0  1217
2 27513   2.8761  86.7959 0003964 324.8984 231.1273  1.00272159    15
INTELSAT 906            
1 27513C 02041A   23124.00000000  .00000105  00000-0  00000-0 0  1243
2 27513   2.8838  86.6860 0004155 331.8752 227.2195  1.00273011    11
GALAXY 12 (G-12)        
1 27715C 03013B   23121.00000000  .00000149  00000-0  00000-0 0  1219
2 27715   4.0651  82.1765 0001878 343.0511  24.4414  1.00272763    18
GALAXY 12 (G-12)        
1 27715C 03013B   23124.00000000  .00000149  00000-0  00000-0 0  1245
2 27715   4.0731  82.0889 0001797 340.6364  29.9050  1.00271819    19
GALAXY 12 (G-12)    [PM]
1 27715C 03013B   23129.70622685  .00000149  00000-0  00000-0 0  1291
2 27715   4.0927  82.0989 0001510 316.0325 314.3705  1.00269591    16
GALAXY 23 (G-23)        
1 27854C 03034A   23121.00000000  .00000103  00000-0  00000-0 0  1216
2 27854   0.2370  95.7108 0003156 315.3760  46.5922  1.00271677    10
GALAXY 23 (G-23)        
1 27854C 03034A   23124.00000000  .00000103  00000-0  00000-0 0  1242
2 27854   0.2432  94.5979 0003135 313.1766  52.8618  1.00272315    13
GALAXY 23 (G-23)    [PM]
1 27854C 03034A   23126.58921296  .00000103  00000-0  00000-0 0  1268
2 27854   0.2534  94.6051 0003228 316.2781 264.4316  1.00270696    18
GALAXY 13               
1 27954C 03044A   23121.00000000  .00000138  00000-0  00000-0 0  1216
2 27954   0.0277 265.1708 0002156 135.4973  51.0104  1.00269888    14
GALAXY 13               
1 27954C 03044A   23124.00000000 -.00000067  00000-0  00000-0 0  1244
2 27954   0.0369  84.2921 0002132 322.2835  48.0820  1.00270807    14
GALAXY 13           [PM]
1 27954C 03044A   23124.71862269  .00000138  00000-0  00000-0 0  1243
2 27954   0.0087 345.4357 0002160  64.1826 304.4507  1.00271279    14
INTELSAT 10-02          
1 28358C 04022A   23121.00000000  .00000085  00000-0  00000-0 0  1213
2 28358   0.0302  84.7044 0000994 320.2763 172.7125  1.00270103    15
INTELSAT 10-02          
1 28358C 04022A   23124.00000000  .00000025  00000-0  00000-0 0  1243
2 28358   0.0072 160.1212 0001238 270.8841 149.6620  1.00271072    13
GALAXY 28 (G-28)        
1 28702C 05022A   23121.00000000 -.00000095  00000-0  00000-0 0  1219
2 28702   0.3407  91.5562 0002979 298.5487  99.5641  1.00272435    12
GALAXY 28 (G-28)    [PM]
1 28702C 05022A   23121.83574074 -.00000095  00000-0  00000-0 0  1217
2 28702   0.3420  91.3908 0002964 302.3931  37.5799  1.00272150    11
GALAXY 28 (G-28)        
1 28702C 05022A   23124.00000000 -.00000095  00000-0  00000-0 0  1245
2 28702   0.3477  90.9360 0003037 310.1920  91.5080  1.00272141    10
GALAXY 28 (G-28)    [PM]
1 28702C 05022A   23127.45890046 -.00000096  00000-0  00000-0 0  1278
2 28702   0.3209 253.4514 0002985 313.9978  93.8090  1.00271673    10
GALAXY 14 (G-14)        
1 28790C 05030A   23121.00000000  .00000246  00000-0  00000-0 0  1212
2 28790   2.0665  88.6904 0001840 306.8574 216.0274  1.00273128    15
GALAXY 14 (G-14)        
1 28790C 05030A   23124.00000000  .00000246  00000-0  00000-0 0  1248
2 28790   2.0740  88.5539 0001935 320.6397 205.3617  1.00274749    16
GALAXY 14 (G-14)    [PM]
1 28790C 05030A   23124.14930556  .00000245  00000-0  00000-0 0  1240
2 28790   2.0745  88.5383 0001780 308.1863 271.7285  1.00269200    19
GALAXY 15 (G-15)        
1 28884C 05041A   23121.00000000  .00000218  00000-0  00000-0 0  1217
2 28884   0.6206  91.9031 0002111 319.1240  19.0816  0.99731469    18
GALAXY 15 (G-15)    [PM]
1 28884C 05041A   23122.79166667  .00000221  00000-0  00000-0 0  1221
2 28884   0.6265  91.7518 0002230 323.4451 298.1987  0.99732438    11
GALAXY 15 (G-15)        
1 28884C 05041A   23124.00000000  .00000222  00000-0  00000-0 0  1248
2 28884   0.6277  91.5520 0002350 329.7296   5.9594  0.99733230    13
GALAXY 16 (G-16)        
1 29236C 06023A   23121.00000000 -.00000037  00000-0  00000-0 0  1210
2 29236   0.0225 251.1173 0002878 148.1831  80.3687  1.00274044    19
GALAXY 16 (G-16)        
1 29236C 06023A   23124.00000000 -.00000037  00000-0  00000-0 0  1246
2 29236   0.0147 257.5469 0002962 149.9795  75.1224  1.00271246    12
GALAXY 16 (G-16)    [PM]
1 29236C 06023A   23130.02043982 -.00003315  00000-0  00000-0 0  1300
2 29236   0.0184 169.2740 0002891 244.4044  82.2592  1.00270030    10
GALAXY 17 (G-17)        
1 31307C 07016B   23121.00000000 -.00000084  00000-0  00000-0 0  1217
2 31307   0.0648  91.2797 0001990   1.5243  34.8805  1.00271247    16
GALAXY 17 (G-17)        
1 31307C 07016B   23124.00000000 -.00000091  00000-0  00000-0 0  1241
2 31307   0.0705  89.0855 0004638 335.1828  67.0704  1.00455963    12
GALAXY 17 (G-17)    [PM]
1 31307C 07016B   23124.08611111 -.00000096  00000-0  00000-0 0  1245
2 31307   0.0705 104.4359 0006344 340.6242  78.2078  1.00521643    17
INTELSAT 11 (IS-11)     
1 32253C 07044B   23121.00000000 -.00000178  00000-0  00000-0 0  1213
2 32253   0.5954  92.6760 0003352 315.0894 127.9105  1.00270857    19
